$$SOE
2460154.500000000, A.D. 2023-Jul-29 00:00:00.0000, 6.686370729864231E+07, 2.951077934934109E+08, 8.465908994697019E+06,
2460161.500000000, A.D. 2023-Aug-05 00:00:00.0000, 5.448098354329020E+07, 2.994348520504311E+08, 9.068698222333461E+06,
2460168.500000000, A.D. 2023-Aug-12 00:00:00.0000, 4.200457491857460E+07, 3.032470731561521E+08, 9.655894208218738E+06,
2460175.500000000, A.D. 2023-Aug-19 00:00:00.0000, 2.945719911378631E+07, 3.065470761880674E+08, 1.022677975889178E+07,
2460182.500000000, A.D. 2023-Aug-26 00:00:00.0000, 1.686092823259271E+07, 3.093384705574085E+08, 1.078069724802685E+07,
2460189.500000000, A.D. 2023-Sep-02 00:00:00.0000, 4.237156403067082E+06, 3.116257811538654E+08, 1.131704703184114E+07,
2460196.500000000, A.D. 2023-Sep-09 00:00:00.0000, -8.393425545778524E+06, 3.134143751627678E+08, 1.183528565524407E+07,
2460203.500000000, A.D. 2023-Sep-16 00:00:00.0000, -2.101084873648798E+07, 3.147103907135940E+08, 1.233492386786413E+07,
2460210.500000000, A.D. 2023-Sep-23 00:00:00.0000, -3.359587838355382E+07, 3.155206680697762E+08, 1.281552447152901E+07,
2460217.500000000, A.D. 2023-Sep-30 00:00:00.0000, -4.613002033576923E+07, 3.158526848906015E+08, 1.327670016073948E+07,
2460224.500000000, A.D. 2023-Oct-07 00:00:00.0000, -5.859552493180662E+07, 3.157144952825713E+08, 1.371811155686298E+07,
2460231.500000000, A.D. 2023-Oct-14 00:00:00.0000, -7.097538766919149E+07, 3.151146694991807E+08, 1.413946509617175E+07,
2460238.500000000, A.D. 2023-Oct-21 00:00:00.0000, -8.325334398881795E+07, 3.140622360113794E+08, 1.454051063094726E+07,
2460245.500000000, A.D. 2023-Oct-28 00:00:00.0000, -9.541386009213984E+07, 3.125666282902848E+08, 1.492103907931738E+07,
2460252.500000000, A.D. 2023-Nov-04 00:00:00.0000, -1.074421214941756E+08, 3.106376355535494E+08, 1.528088019246845E+07,
2460259.500000000, A.D. 2023-Nov-11 00:00:00.0000, -1.193240195560158E+08, 3.082853568519586E+08, 1.561990038834734E+07,
2460266.500000000, A.D. 2023-Nov-18 00:00:00.0000, -1.310461361626361E+08, 3.055201583729613E+08, 1.593800063806625E+07,
2460273.500000000, A.D. 2023-Nov-25 00:00:00.0000, -1.425957268247258E+08, 3.023526338919060E+08, 1.623511440933128E+07,
2460280.500000000, A.D. 2023-Dec-02 00:00:00.0000, -1.539607025007938E+08, 2.987935682441083E+08, 1.651120567103072E+07,
2460287.500000000, A.D. 2023-Dec-09 00:00:00.0000, -1.651296103613672E+08, 2.948539036331053E+08, 1.676626695378484E+07,
2460294.500000000, A.D. 2023-Dec-16 00:00:00.0000, -1.760916134774509E+08, 2.905447086602281E+08, 1.700031744674021E+07,
2460301.500000000, A.D. 2023-Dec-23 00:00:00.0000, -1.868364693200146E+08, 2.858771506321878E+08, 1.721340115871049E+07,
2460308.500000000, A.D. 2023-Dec-30 00:00:00.0000, -1.973545086141744E+08, 2.808624720597003E+08, 1.740558535431930E+07,
2460315.500000000, A.D. 2024-Jan-06 00:00:00.0000, -2.076366164927370E+08, 2.755119688455103E+08, 1.757695923509176E+07,
2460322.500000000, A.D. 2024-Jan-13 00:00:00.0000, -2.176742129177068E+08, 2.698369682002679E+08, 1.772763242615126E+07,
2460329.500000000, A.D. 2024-Jan-20 00:00:00.0000, -2.274592312764146E+08, 2.638488092123695E+08, 1.785773340737142E+07,
2460336.500000000, A.D. 2024-Jan-27 00:00:00.0000, -2.369840972963836E+08, 2.575588265811236E+08, 1.796740812645137E+07,
2460343.500000000, A.D. 2024-Feb-03 00:00:00.0000, -2.462417087969202E+08, 2.509783364240942E+08, 1.805681875294201E+07,
2460350.500000000, A.D. 2024-Feb-10 00:00:00.0000, -2.552254160736694E+08, 2.441186237256061E+08, 1.812614252087750E+07,
2460357.500000000, A.D. 2024-Feb-17 00:00:00.0000, -2.639290028407511E+08, 2.369909312973981E+08, 1.817557064472742E+07,
2460364.500000000, A.D. 2024-Feb-24 00:00:00.0000, -2.723466677486709E+08, 2.296064501372665E+08, 1.820530730356988E+07,
2460371.500000000, A.D. 2024-Mar-02 00:00:00.0000, -2.804730064937103E+08, 2.219763110335305E+08, 1.821556868548164E+07,
2460378.500000000, A.D. 2024-Mar-09 00:00:00.0000, -2.883029944153486E+08, 2.141115772421457E+08, 1.820658207184088E+07,
2460385.500000000, A.D. 2024-Mar-16 00:00:00.0000, -2.958319692116367E+08, 2.060232383312587E+08, 1.817858493893138E+07,
2460392.500000000, A.D. 2024-Mar-23 00:00:00.0000, -3.030556138926474E+08, 1.977222062057208E+08, 1.813182417426574E+07,
2460399.500000000, A.D. 2024-Mar-30 00:00:00.0000, -3.099699422248691E+08, 1.892193131947304E+08, 1.806655560802826E+07,
2460406.500000000, A.D. 2024-Apr-06 00:00:00.0000, -3.165712864160424E+08, 1.805253087537872E+08, 1.798304355785457E+07,
2460413.500000000, A.D. 2024-Apr-13 00:00:00.0000, -3.228562834822497E+08, 1.716508555381056E+08, 1.788156012657376E+07,
2460420.500000000, A.D. 2024-Apr-20 00:00:00.0000, -3.288218612417507E+08, 1.626065274437615E+08, 1.776238455598949E+07,
2460427.500000000, A.D. 2024-Apr-27 00:00:00.0000, -3.344652254504080E+08, 1.534028089853717E+08, 1.762580272702391E+07,
2460434.500000000, A.D. 2024-May-04 00:00:00.0000, -3.397838479834940E+08, 1.440500952461590E+08, 1.747210673799644E+07,
2460441.500000000, A.D. 2024-May-11 00:00:00.0000, -3.447754558132791E+08, 1.345586922408434E+08, 1.730159452840368E+07,
2460448.500000000, A.D. 2024-May-18 00:00:00.0000, -3.494380206870478E+08, 1.249388176587465E+08, 1.711456954015196E+07,
2460455.500000000, A.D. 2024-May-25 00:00:00.0000, -3.537697494670418E+08, 1.152006019302633E+08, 1.691134041125613E+07,
2460462.500000000, A.D. 2024-Jun-01 00:00:00.0000, -3.577690750581416E+08, 1.053540895138792E+08, 1.669222068985363E+07,
2460469.500000000, A.D. 2024-Jun-08 00:00:00.0000, -3.614346476619591E+08, 9.540924033921948E+07, 1.645752854224947E+07,
2460476.500000000, A.D. 2024-Jun-15 00:00:00.0000, -3.647653259421983E+08, 8.537593191286634E+07, 1.620758646121670E+07,
2460483.500000000, A.D. 2024-Jun-22 00:00:00.0000, -3.677601690911014E+08, 7.526396322605850E+07, 1.594272116118884E+07,
2460490.500000000, A.D. 2024-Jun-29 00:00:00.0000, -3.704184319063715E+08, 6.508305861025783E+07, 1.566326370459402E+07,
2460497.500000000, A.D. 2024-Jul-06 00:00:00.0000, -3.727395602229604E+08, 5.484286904186384E+07, 1.536954941345355E+07,
2460504.500000000, A.D. 2024-Jul-13 00:00:00.0000, -3.747231847340302E+08, 4.455297369543149E+07, 1.506191761712221E+07,
2460511.500000000, A.D. 2024-Jul-20 00:00:00.0000, -3.763691151699690E+08, 3.422288286703951E+07, 1.474071151082969E+07,
2460518.500000000, A.D. 2024-Jul-27 00:00:00.0000, -3.776773354815226E+08, 2.386204128398113E+07, 1.440627810527135E+07,
2460525.500000000, A.D. 2024-Aug-03 00:00:00.0000, -3.786479997445306E+08, 1.347983140766704E+07, 1.405896821023417E+07,
2460532.500000000, A.D. 2024-Aug-10 00:00:00.0000, -3.792814286062769E+08, 3.085576709546624E+06, 1.369913643544180E+07,
2460539.500000000, A.D. 2024-Aug-17 00:00:00.0000, -3.795781062089940E+08, -7.311455075207081E+06, 1.332714120478655E+07,
2460546.500000000, A.D. 2024-Aug-24 00:00:00.0000, -3.795386775468045E+08, -1.770204875814666E+07, 1.294334477831306E+07,
2460553.500000000, A.D. 2024-Aug-31 00:00:00.0000, -3.791639461299573E+08, -2.807703865463516E+07, 1.254811326514113E+07,
2460560.500000000, A.D. 2024-Sep-07 00:00:00.0000, -3.784548715863995E+08, -3.842730558013859E+07, 1.214181660305258E+07,
2460567.500000000, A.D. 2024-Sep-14 00:00:00.0000, -3.774125671133193E+08, -4.874377290467560E+07, 1.172482857731249E+07,
2460574.500000000, A.D. 2024-Sep-21 00:00:00.0000, -3.760382988043432E+08, -5.901740126529901E+07, 1.129752709751675E+07,
2460581.500000000, A.D. 2024-Sep-28 00:00:00.0000, -3.743334873372871E+08, -6.923918517675167E+07, 1.086029451239268E+07,
2460588.500000000, A.D. 2024-Oct-05 00:00:00.0000, -3.722997083506330E+08, -7.940015154966919E+07, 1.041351762536723E+07,
2460595.500000000, A.D. 2024-Oct-12 00:00:00.0000, -3.699386918628015E+08, -8.949135714604716E+07, 9.957587687058069E+06,
2460602.500000000, A.D. 2024-Oct-19 00:00:00.0000, -3.672523224767935E+08, -9.950388525576098E+07, 9.492900502505716E+06,
2460609.500000000, A.D. 2024-Oct-26 00:00:00.0000, -3.642426403987690E+08, -1.094288424113912E+08, 9.019856589783330E+06,
2460616.500000000, A.D. 2024-Nov-02 00:00:00.0000, -3.609118430133661E+08, -1.192573553047778E+08, 8.538861353585638E+06,
2460623.500000000, A.D. 2024-Nov-09 00:00:00.0000, -3.572622869195842E+08, -1.289805678983478E+08, 8.050325266170263E+06,
2460630.500000000, A.D. 2024-Nov-16 00:00:00.0000, -3.532964904012662E+08, -1.385896387450000E+08, 7.554664052881137E+06,
2460637.500000000, A.D. 2024-Nov-23 00:00:00.0000, -3.490171362855664E+08, -1.480757385815094E+08, 7.052298873428449E+06,
2460644.500000000, A.D. 2024-Nov-30 00:00:00.0000, -3.444270749822301E+08, -1.574300482541117E+08, 6.543656475885101E+06,
2460651.500000000, A.D. 2024-Dec-07 00:00:00.0000, -3.395293272859190E+08, -1.666437565724155E+08, 6.029169318871021E+06,
2460658.500000000, A.D. 2024-Dec-14 00:00:00.0000, -3.343270876316808E+08, -1.757080568852907E+08, 5.509275824666671E+06,
2460665.500000000, A.D. 2024-Dec-21 00:00:00.0000, -3.288237301236817E+08, -1.846141436393149E+08, 4.984420873940714E+06,
2460672.500000000, A.D. 2024-Dec-28 00:00:00.0000, -3.230228153691893E+08, -1.933532119100482E+08, 4.455056118017666E+06,
2460679.500000000, A.D. 2025-Jan-04 00:00:00.0000, -3.169280955271685E+08, -2.019164575530733E+08, 3.921640064240336E+06,
2460686.500000000, A.D. 2025-Jan-11 00:00:00.0000, -3.105435193967901E+08, -2.102950763369117E+08, 3.384638236877650E+06,
2460693.500000000, A.D. 2025-Jan-18 00:00:00.0000, -3.038732384639543E+08, -2.184802630005995E+08, 2.844523422129899E+06,
2460700.500000000, A.D. 2025-Jan-25 00:00:00.0000, -2.969216136637245E+08, -2.264632107389703E+08, 2.301775935297951E+06,
2460707.500000000, A.D. 2025-Feb-01 00:00:00.0000, -2.896932226726819E+08, -2.342351111777668E+08, 1.756883889345065E+06,
2460714.500000000, A.D. 2025-Feb-08 00:00:00.0000, -2.821928676770973E+08, -2.417871548523842E+08, 1.210343460240170E+06,
2460721.500000000, A.D. 2025-Feb-15 00:00:00.0000, -2.744255835911893E+08, -2.491105322452125E+08, 6.626591438933015E+05,
$$EOE